{
 "generated_at": "2026-06-29T09:26:28Z",
 "sources": [
  {
   "name": "CelesTrak",
   "url": "https://celestrak.org/NORAD/elements/",
   "license": "frei verfügbar; Attribution. Ursprünglich USSPACECOM/Space-Track."
  },
  {
   "name": "GCAT (J. McDowell, planet4589.org)",
   "url": "https://planet4589.org/space/gcat/",
   "license": "CC-BY 4.0"
  }
 ],
 "satellites": [
  {
   "norad": 55973,
   "name": "TIANMU-1 03",
   "intl": "2023-039A",
   "group": "weather",
   "gcat": {
    "class": "B",
    "category": "MET",
    "owner": "TIANMU",
    "state": "CN"
   },
   "omm": {
    "OBJECT_NAME": "TIANMU-1 03",
    "OBJECT_ID": "2023-039A",
    "EPOCH": "2026-06-28T22:45:56.613024",
    "MEAN_MOTION": 15.47610733,
    "ECCENTRICITY": 0.00038619,
    "INCLINATION": 97.5228,
    "RA_OF_ASC_NODE": 354.3808,
    "ARG_OF_PERICENTER": 70.5738,
    "MEAN_ANOMALY": 289.5929,
    "EPHEMERIS_TYPE": 0,
    "CLASSIFICATION_TYPE": "U",
    "NORAD_CAT_ID": 55973,
    "ELEMENT_SET_NO": 999,
    "REV_AT_EPOCH": 18265,
    "BSTAR": 0.00027975518,
    "MEAN_MOTION_DOT": 0.00014339,
    "MEAN_MOTION_DDOT": 0
   }
  },
  {
   "norad": 55974,
   "name": "TIANMU-1 04",
   "intl": "2023-039B",
   "group": "weather",
   "gcat": {
    "class": "B",
    "category": "MET",
    "owner": "TIANMU",
    "state": "CN"
   },
   "omm": {
    "OBJECT_NAME": "TIANMU-1 04",
    "OBJECT_ID": "2023-039B",
    "EPOCH": "2026-06-28T22:24:11.813184",
    "MEAN_MOTION": 15.48221819,
    "ECCENTRICITY": 0.00042626,
    "INCLINATION": 97.5168,
    "RA_OF_ASC_NODE": 353.5194,
    "ARG_OF_PERICENTER": 63.6898,
    "MEAN_ANOMALY": 296.4789,
    "EPHEMERIS_TYPE": 0,
    "CLASSIFICATION_TYPE": "U",
    "NORAD_CAT_ID": 55974,
    "ELEMENT_SET_NO": 999,
    "REV_AT_EPOCH": 18266,
    "BSTAR": 0.00027616926,
    "MEAN_MOTION_DOT": 0.0001446,
    "MEAN_MOTION_DDOT": 0
   }
  },
  {
   "norad": 55975,
   "name": "TIANMU-1 05",
   "intl": "2023-039C",
   "group": "weather",
   "gcat": {
    "class": "B",
    "category": "MET",
    "owner": "TIANMU",
    "state": "CN"
   },
   "omm": {
    "OBJECT_NAME": "TIANMU-1 05",
    "OBJECT_ID": "2023-039C",
    "EPOCH": "2026-06-28T22:19:04.260288",
    "MEAN_MOTION": 15.47536416,
    "ECCENTRICITY": 0.00038407,
    "INCLINATION": 97.5212,
    "RA_OF_ASC_NODE": 353.9717,
    "ARG_OF_PERICENTER": 86.1728,
    "MEAN_ANOMALY": 273.9961,
    "EPHEMERIS_TYPE": 0,
    "CLASSIFICATION_TYPE": "U",
    "NORAD_CAT_ID": 55975,
    "ELEMENT_SET_NO": 999,
    "REV_AT_EPOCH": 18263,
    "BSTAR": 0.00027866575,
    "MEAN_MOTION_DOT": 0.00014246,
    "MEAN_MOTION_DDOT": 0
   }
  },
  {
   "norad": 55976,
   "name": "TIANMU-1 06",
   "intl": "2023-039D",
   "group": "weather",
   "gcat": {
    "class": "B",
    "category": "MET",
    "owner": "TIANMU",
    "state": "CN"
   },
   "omm": {
    "OBJECT_NAME": "TIANMU-1 06",
    "OBJECT_ID": "2023-039D",
    "EPOCH": "2026-06-29T00:03:12.222720",
    "MEAN_MOTION": 15.48124206,
    "ECCENTRICITY": 0.000405,
    "INCLINATION": 97.522,
    "RA_OF_ASC_NODE": 354.6946,
    "ARG_OF_PERICENTER": 81.1878,
    "MEAN_ANOMALY": 278.9831,
    "EPHEMERIS_TYPE": 0,
    "CLASSIFICATION_TYPE": "U",
    "NORAD_CAT_ID": 55976,
    "ELEMENT_SET_NO": 999,
    "REV_AT_EPOCH": 18267,
    "BSTAR": 0.0002712273,
    "MEAN_MOTION_DOT": 0.0001415,
    "MEAN_MOTION_DDOT": 0
   }
  },
  {
   "norad": 57399,
   "name": "TIANMU-1 07",
   "intl": "2023-101A",
   "group": "weather",
   "gcat": {
    "class": "B",
    "category": "MET",
    "owner": "TIANMU",
    "state": "CN"
   },
   "omm": {
    "OBJECT_NAME": "TIANMU-1 07",
    "OBJECT_ID": "2023-101A",
    "EPOCH": "2026-06-28T22:31:58.774944",
    "MEAN_MOTION": 15.29940203,
    "ECCENTRICITY": 0.00043292,
    "INCLINATION": 97.2589,
    "RA_OF_ASC_NODE": 230.3375,
    "ARG_OF_PERICENTER": 97.6928,
    "MEAN_ANOMALY": 262.4805,
    "EPHEMERIS_TYPE": 0,
    "CLASSIFICATION_TYPE": "U",
    "NORAD_CAT_ID": 57399,
    "ELEMENT_SET_NO": 999,
    "REV_AT_EPOCH": 16344,
    "BSTAR": 0.00020733895,
    "MEAN_MOTION_DOT": 0.00005937,
    "MEAN_MOTION_DDOT": 0
   }
  },
  {
   "norad": 57400,
   "name": "TIANMU-1 08",
   "intl": "2023-101B",
   "group": "weather",
   "gcat": {
    "class": "B",
    "category": "MET",
    "owner": "TIANMU",
    "state": "CN"
   },
   "omm": {
    "OBJECT_NAME": "TIANMU-1 08",
    "OBJECT_ID": "2023-101B",
    "EPOCH": "2026-06-28T23:18:04.757760",
    "MEAN_MOTION": 15.29944924,
    "ECCENTRICITY": 0.00056292,
    "INCLINATION": 97.2578,
    "RA_OF_ASC_NODE": 230.1378,
    "ARG_OF_PERICENTER": 86.7055,
    "MEAN_ANOMALY": 273.483,
    "EPHEMERIS_TYPE": 0,
    "CLASSIFICATION_TYPE": "U",
    "NORAD_CAT_ID": 57400,
    "ELEMENT_SET_NO": 999,
    "REV_AT_EPOCH": 16344,
    "BSTAR": 0.00020202263,
    "MEAN_MOTION_DOT": 0.00005785,
    "MEAN_MOTION_DDOT": 0
   }
  },
  {
   "norad": 57401,
   "name": "TIANMU-1 09",
   "intl": "2023-101C",
   "group": "weather",
   "gcat": {
    "class": "B",
    "category": "MET",
    "owner": "TIANMU",
    "state": "CN"
   },
   "omm": {
    "OBJECT_NAME": "TIANMU-1 09",
    "OBJECT_ID": "2023-101C",
    "EPOCH": "2026-06-28T22:53:50.123904",
    "MEAN_MOTION": 15.29979903,
    "ECCENTRICITY": 0.00049116,
    "INCLINATION": 97.2536,
    "RA_OF_ASC_NODE": 229.5311,
    "ARG_OF_PERICENTER": 100.618,
    "MEAN_ANOMALY": 259.5614,
    "EPHEMERIS_TYPE": 0,
    "CLASSIFICATION_TYPE": "U",
    "NORAD_CAT_ID": 57401,
    "ELEMENT_SET_NO": 999,
    "REV_AT_EPOCH": 16344,
    "BSTAR": 0.00021197158,
    "MEAN_MOTION_DOT": 0.00006079,
    "MEAN_MOTION_DDOT": 0
   }
  },
  {
   "norad": 57402,
   "name": "TIANMU-1 10",
   "intl": "2023-101D",
   "group": "weather",
   "gcat": {
    "class": "B",
    "category": "MET",
    "owner": "TIANMU",
    "state": "CN"
   },
   "omm": {
    "OBJECT_NAME": "TIANMU-1 10",
    "OBJECT_ID": "2023-101D",
    "EPOCH": "2026-06-28T23:41:44.097216",
    "MEAN_MOTION": 15.29952788,
    "ECCENTRICITY": 0.00064247,
    "INCLINATION": 97.2615,
    "RA_OF_ASC_NODE": 230.626,
    "ARG_OF_PERICENTER": 96.1647,
    "MEAN_ANOMALY": 264.0326,
    "EPHEMERIS_TYPE": 0,
    "CLASSIFICATION_TYPE": "U",
    "NORAD_CAT_ID": 57402,
    "ELEMENT_SET_NO": 999,
    "REV_AT_EPOCH": 16344,
    "BSTAR": 0.00020885807,
    "MEAN_MOTION_DOT": 0.00005985,
    "MEAN_MOTION_DDOT": 0
   }
  },
  {
   "norad": 58645,
   "name": "TIANMU-1 11",
   "intl": "2023-205A",
   "group": "weather",
   "gcat": {
    "class": "B",
    "category": "MET",
    "owner": "TIANMU",
    "state": "CN"
   },
   "omm": {
    "OBJECT_NAME": "TIANMU-1 11",
    "OBJECT_ID": "2023-205A",
    "EPOCH": "2026-06-28T23:30:35.564256",
    "MEAN_MOTION": 15.27112677,
    "ECCENTRICITY": 0.00075644,
    "INCLINATION": 97.3439,
    "RA_OF_ASC_NODE": 201.3516,
    "ARG_OF_PERICENTER": 333.4982,
    "MEAN_ANOMALY": 26.587,
    "EPHEMERIS_TYPE": 0,
    "CLASSIFICATION_TYPE": "U",
    "NORAD_CAT_ID": 58645,
    "ELEMENT_SET_NO": 999,
    "REV_AT_EPOCH": 13932,
    "BSTAR": 0.0001966178,
    "MEAN_MOTION_DOT": 0.00005158,
    "MEAN_MOTION_DDOT": 0
   }
  },
  {
   "norad": 58646,
   "name": "TIANMU-1 12",
   "intl": "2023-205B",
   "group": "weather",
   "gcat": {
    "class": "B",
    "category": "MET",
    "owner": "TIANMU",
    "state": "CN"
   },
   "omm": {
    "OBJECT_NAME": "TIANMU-1 12",
    "OBJECT_ID": "2023-205B",
    "EPOCH": "2026-06-29T00:22:49.630080",
    "MEAN_MOTION": 15.2701108,
    "ECCENTRICITY": 0.00054927,
    "INCLINATION": 97.3429,
    "RA_OF_ASC_NODE": 201.1404,
    "ARG_OF_PERICENTER": 312.9942,
    "MEAN_ANOMALY": 47.0836,
    "EPHEMERIS_TYPE": 0,
    "CLASSIFICATION_TYPE": "U",
    "NORAD_CAT_ID": 58646,
    "ELEMENT_SET_NO": 999,
    "REV_AT_EPOCH": 13931,
    "BSTAR": 0.00020848217,
    "MEAN_MOTION_DOT": 0.00005455,
    "MEAN_MOTION_DDOT": 0
   }
  }
 ]
}
